FLOCK 4G-2              
1 62661U 25009BE  26068.66207492  .00013752  00000+0  51068-3 0  9995
2 62661  97.4044 151.2221 0003181 329.2677  30.8376 15.27675260121321
STARLINK-34121          
1 63961U 25099K   26068.34660820  .00025840  00000+0  94465-3 0  9990
2 63961  42.9973 178.1738 0001742 164.0351 196.0556 15.27599454 47284
